$$SOE
2460147.500000000, A.D. 2023-Jul-22 00:00:00.0000, -2.132242987796513E+08, -3.942590466669544E+08, -2.252414626559145E+08,
2460154.500000000, A.D. 2023-Jul-29 00:00:00.0000, -2.054101550573055E+08, -3.956828787705867E+08, -2.233165333783386E+08,
2460161.500000000, A.D. 2023-Aug-05 00:00:00.0000, -1.975156378205255E+08, -3.969517677604896E+08, -2.213041488889126E+08,
2460168.500000000, A.D. 2023-Aug-12 00:00:00.0000, -1.895423863652601E+08, -3.980622940539287E+08, -2.192034669968582E+08,
2460175.500000000, A.D. 2023-Aug-19 00:00:00.0000, -1.814921156991399E+08, -3.990109323054771E+08, -2.170136274329959E+08,
2460182.500000000, A.D. 2023-Aug-26 00:00:00.0000, -1.733666228182601E+08, -3.997940464605192E+08, -2.147337519105270E+08,
2460189.500000000, A.D. 2023-Sep-02 00:00:00.0000, -1.651677935116237E+08, -4.004078846633469E+08, -2.123629442654032E+08,
2460196.500000000, A.D. 2023-Sep-09 00:00:00.0000, -1.568976097042434E+08, -4.008485740534430E+08, -2.099002906951555E+08,
2460203.500000000, A.D. 2023-Sep-16 00:00:00.0000, -1.485581572231598E+08, -4.011121155009186E+08, -2.073448601303366E+08,
2460210.500000000, A.D. 2023-Sep-23 00:00:00.0000, -1.401516336281966E+08, -4.011943779880172E+08, -2.046957047692662E+08,
2460217.500000000, A.D. 2023-Sep-30 00:00:00.0000, -1.316803565113529E+08, -4.010910914405283E+08, -2.019518606656788E+08,
2460224.500000000, A.D. 2023-Oct-07 00:00:00.0000, -1.231467746892710E+08, -4.007978385474510E+08, -1.991123482180225E+08,
2460231.500000000, A.D. 2023-Oct-14 00:00:00.0000, -1.145534813263490E+08, -4.003100488795935E+08, -1.961761729500200E+08,
2460238.500000000, A.D. 2023-Oct-21 00:00:00.0000, -1.059032258458902E+08, -3.996229937052717E+08, -1.931423267756410E+08,
2460245.500000000, A.D. 2023-Oct-28 00:00:00.0000, -9.719892614966221E+07, -3.987317792469693E+08, -1.900097894653961E+08,
2460252.500000000, A.D. 2023-Nov-04 00:00:00.0000, -8.844368250224203E+07, -3.976313391565450E+08, -1.867775302987310E+08,
2460259.500000000, A.D. 2023-Nov-11 00:00:00.0000, -7.964079302007727E+07, -3.963164268205297E+08, -1.834445100095037E+08,
2460266.500000000, A.D. 2023-Nov-18 00:00:00.0000, -7.079377067560443E+07, -3.947816075772533E+08, -1.800096830977994E+08,
2460273.500000000, A.D. 2023-Nov-25 00:00:00.0000, -6.190636188697483E+07, -3.930212508479857E+08, -1.764720005681695E+08,
2460280.500000000, A.D. 2023-Dec-02 00:00:00.0000, -5.298256682367078E+07, -3.910295222273555E+08, -1.728304131619140E+08,
2460287.500000000, A.D. 2023-Dec-09 00:00:00.0000, -4.402666152573335E+07, -3.888003756375474E+08, -1.690838751698129E+08,
2460294.500000000, A.D. 2023-Dec-16 00:00:00.0000, -3.504322174363966E+07, -3.863275455931684E+08, -1.652313489367240E+08,
2460301.500000000, A.D. 2023-Dec-23 00:00:00.0000, -2.603714836571459E+07, -3.836045389654331E+08, -1.612718101329493E+08,
2460308.500000000, A.D. 2023-Dec-30 00:00:00.0000, -1.701369601103033E+07, -3.806246252923244E+08, -1.572042536975827E+08,
2460315.500000000, A.D. 2024-Jan-06 00:00:00.0000, -7.978506821448767E+06, -3.773808281150910E+08, -1.530277006149857E+08,
2460322.500000000, A.D. 2024-Jan-13 00:00:00.0000, 1.062353433973804E+06, -3.738659192982479E+08, -1.487412061147687E+08,
2460329.500000000, A.D. 2024-Jan-20 00:00:00.0000, 1.010235785192798E+07, -3.700724134372832E+08, -1.443438693319571E+08,
2460336.500000000, A.D. 2024-Jan-27 00:00:00.0000, 1.913447711254822E+07, -3.659925619356956E+08, -1.398348443917535E+08,
2460343.500000000, A.D. 2024-Feb-03 00:00:00.0000, 2.815113361923790E+07, -3.616183479877359E+08, -1.352133531919538E+08,
2460350.500000000, A.D. 2024-Feb-10 00:00:00.0000, 3.714415093281092E+07, -3.569414831116531E+08, -1.304787002031045E+08,
2460357.500000000, A.D. 2024-Feb-17 00:00:00.0000, 4.610469820259739E+07, -3.519534056588110E+08, -1.256302896104210E+08,
2460364.500000000, A.D. 2024-Feb-24 00:00:00.0000, 5.502322916545597E+07, -3.466452818126171E+08, -1.206676451579596E+08,
2460371.500000000, A.D. 2024-Mar-02 00:00:00.0000, 6.388941525267442E+07, -3.410080097532893E+08, -1.155904331115823E+08,
2460378.500000000, A.D. 2024-Mar-09 00:00:00.0000, 7.269207243725477E+07, -3.350322278331410E+08, -1.103984888298673E+08,
2460385.500000000, A.D. 2024-Mar-16 00:00:00.0000, 8.141908170528613E+07, -3.287083275131607E+08, -1.050918475025553E+08,
2460392.500000000, A.D. 2024-Mar-23 00:00:00.0000, 9.005730254819888E+07, -3.220264710996710E+08, -9.967077957337186E+07,
2460399.500000000, A.D. 2024-Mar-30 00:00:00.0000, 9.859247676973604E+07, -3.149766156951091E+08, -9.413583134763721E+07,
2460406.500000000, A.D. 2024-Apr-06 00:00:00.0000, 1.070091224644870E+08, -3.075485484019469E+08, -8.848787188099563E+07,
2460413.500000000, A.D. 2024-Apr-13 00:00:00.0000, 1.152904214304110E+08, -2.997319339514574E+08, -8.272814730311491E+07,
2460420.500000000, A.D. 2024-Apr-20 00:00:00.0000, 1.234180989455887E+08, -2.915163744814018E+08, -7.685834326622204E+07,
2460427.500000000, A.D. 2024-Apr-27 00:00:00.0000, 1.313722945299682E+08, -2.828914848743215E+08, -7.088065651656704E+07,
2460434.500000000, A.D. 2024-May-04 00:00:00.0000, 1.391314242863638E+08, -2.738469877232487E+08, -6.479787683232515E+07,
2460441.500000000, A.D. 2024-May-11 00:00:00.0000, 1.466720360797392E+08, -2.643728319685720E+08, -5.861348060308847E+07,
2460448.500000000, A.D. 2024-May-18 00:00:00.0000, 1.539686593581659E+08, -2.544593397622236E+08, -5.233173733151709E+07,
2460455.500000000, A.D. 2024-May-25 00:00:00.0000, 1.609936522992109E+08, -2.440973868171321E+08, -4.595783030330661E+07,
2460462.500000000, A.D. 2024-Jun-01 00:00:00.0000, 1.677170502381781E+08, -2.332786222257459E+08, -3.949799255462112E+07,
2460469.500000000, A.D. 2024-Jun-08 00:00:00.0000, 1.741064211297845E+08, -2.219957343257391E+08, -3.295965902159810E+07,
2460476.500000000, A.D. 2024-Jun-15 00:00:00.0000, 1.801267359918859E+08, -2.102427691234092E+08, -2.635163527175389E+07,
2460483.500000000, A.D. 2024-Jun-22 00:00:00.0000, 1.857402634114124E+08, -1.980155073858830E+08, -1.968428231469752E+07,
2460490.500000000, A.D. 2024-Jun-29 00:00:00.0000, 1.909064991544426E+08, -1.853119092731335E+08, -1.296971605361268E+07,
2460497.500000000, A.D. 2024-Jul-06 00:00:00.0000, 1.955821503190970E+08, -1.721326350795359E+08, -6.222018895648792E+06,
2460504.500000000, A.D. 2024-Jul-13 00:00:00.0000, 1.997211968807047E+08, -1.584816433708514E+08, 5.425415560729504E+05,
2460511.500000000, A.D. 2024-Jul-20 00:00:00.0000, 2.032750539112041E+08, -1.443668660303670E+08, 7.305294797658600E+06,
2460518.500000000, A.D. 2024-Jul-27 00:00:00.0000, 2.061928633140570E+08, -1.298009564411360E+08, 1.404496198125137E+07,
2460525.500000000, A.D. 2024-Aug-03 00:00:00.0000, 2.084219482792184E+08, -1.148020986190271E+08, 2.073747818595028E+07,
2460532.500000000, A.D. 2024-Aug-10 00:00:00.0000, 2.099084651972487E+08, -9.939485408681123E+07, 2.735586267022060E+07,
2460539.500000000, A.D. 2024-Aug-17 00:00:00.0000, 2.105982861291532E+08, -8.361100964051156E+07, 3.387016234342584E+07,
2460546.500000000, A.D. 2024-Aug-24 00:00:00.0000, 2.104381385099523E+08, -6.749037301272602E+07, 4.024749814400072E+07,
2460553.500000000, A.D. 2024-Aug-31 00:00:00.0000, 2.093770157162606E+08, -5.108144590707079E+07, 4.645224686569971E+07,
2460560.500000000, A.D. 2024-Sep-07 00:00:00.0000, 2.073678509349193E+08, -3.444188703552741E+07, 5.244639076856142E+07,
2460567.500000000, A.D. 2024-Sep-14 00:00:00.0000, 2.043694161900023E+08, -1.763866475903701E+07, 5.819006249413717E+07,
2460574.500000000, A.D. 2024-Sep-21 00:00:00.0000, 2.003483683056582E+08, -7.477966026863828E+05, 6.364230186922000E+07,
2460581.500000000, A.D. 2024-Sep-28 00:00:00.0000, 1.952813230883806E+08, 1.614641199947310E+07, 6.876202269779493E+07,
2460588.500000000, A.D. 2024-Oct-05 00:00:00.0000, 1.891568037173534E+08, 3.295269064545793E+07, 7.350916304066633E+07,
2460595.500000000, A.D. 2024-Oct-12 00:00:00.0000, 1.819768777353868E+08, 4.957470261095755E+07, 7.784596455202004E+07,
2460602.500000000, A.D. 2024-Oct-19 00:00:00.0000, 1.737582901340767E+08, 6.591346364954066E+07, 8.173829819175050E+07,
2460609.500000000, A.D. 2024-Oct-26 00:00:00.0000, 1.645329262899519E+08, 8.187015140642886E+07, 8.515693196332437E+07,
2460616.500000000, A.D. 2024-Nov-02 00:00:00.0000, 1.543474955997586E+08, 9.734911004536179E+07, 8.807862791119649E+07,
2460623.500000000, A.D. 2024-Nov-09 00:00:00.0000, 1.432624094746223E+08, 1.122608109391869E+08, 9.048696456959128E+07,
2460630.500000000, A.D. 2024-Nov-16 00:00:00.0000, 1.313499222010995E+08, 1.265245213118261E+08, 9.237280776881817E+07,
2460637.500000000, A.D. 2024-Nov-23 00:00:00.0000, 1.186916910587120E+08, 1.400704632347493E+08, 9.373439292404029E+07,
2460644.500000000, A.D. 2024-Nov-30 00:00:00.0000, 1.053759749023170E+08, 1.528413099732432E+08, 9.457702767134872E+07,
2460651.500000000, A.D. 2024-Dec-07 00:00:00.0000, 9.149471646722244E+07, 1.647929517057989E+08, 9.491246570995861E+07,
2460658.500000000, A.D. 2024-Dec-14 00:00:00.0000, 7.714073970582056E+07, 1.758945499569386E+08, 9.475803327061084E+07,
2460665.500000000, A.D. 2024-Dec-21 00:00:00.0000, 6.240524770217729E+07, 1.861279697275736E+08, 9.413560422248316E+07,
2460672.500000000, A.D. 2024-Dec-28 00:00:00.0000, 4.737574888373026E+07, 1.954867239695765E+08, 9.307051841548832E+07,
2460679.500000000, A.D. 2025-Jan-04 00:00:00.0000, 3.213447424069710E+07, 2.039745900809566E+08, 9.159052515413901E+07,
2460686.500000000, A.D. 2025-Jan-11 00:00:00.0000, 1.675728604924873E+07, 2.116040528703992E+08, 8.972481376386130E+07,
2460693.500000000, A.D. 2025-Jan-18 00:00:00.0000, 1.313036362375593E+06, 2.183947044984937E+08, 8.750317063814814E+07,
2460700.500000000, A.D. 2025-Jan-25 00:00:00.0000, -1.413669178571933E+07, 2.243717022202178E+08, 8.495528161706209E+07,
2460707.500000000, A.D. 2025-Feb-01 00:00:00.0000, -2.953753905417390E+07, 2.295643532432326E+08, 8.211018216335501E+07,
2460714.500000000, A.D. 2025-Feb-08 00:00:00.0000, -4.484209910467466E+07, 2.340048670791574E+08, 7.899584624676181E+07,
$$EOE